OBJECT_NAME,OBJECT_ID,EPOCH,MEAN_MOTION,ECCENTRICITY,INCLINATION,RA_OF_ASC_NODE,ARG_OF_PERICENTER,MEAN_ANOMALY,EPHEMERIS_TYPE,CLASSIFICATION_TYPE,NORAD_CAT_ID,ELEMENT_SET_NO,REV_AT_EPOCH,BSTAR,MEAN_MOTION_DOT,MEAN_MOTION_DDOT
SKYSAT-C1,2016-040C,2026-07-19T07:43:35.078592,15.36787797,.0000501,96.9550,230.3079,204.4557,155.6664,0,U,41601,999,56280,.13026652E-3,.4607E-4,0
LAPAN-A3,2016-040E,2026-07-19T07:14:19.686336,15.33292390,.00082823,97.1508,195.3990,257.9571,102.0744,0,U,41603,999,55973,.53776679E-4,.1656E-4,0
GAOFEN-3,2016-049A,2026-07-19T06:36:29.142720,14.42219375,.00017706,98.4018,207.5778,82.4935,277.6456,0,U,41727,999,52327,.54158856E-4,.135E-5,0
SKYSAT-C4,2016-058B,2026-07-19T07:23:02.142816,15.49519373,.00035402,96.9170,220.7540,112.6543,247.5084,0,U,41771,999,55044,.17512998E-3,.9565E-4,0
SKYSAT-C5,2016-058C,2026-07-19T01:27:17.155872,15.33749470,.00029542,97.0451,239.2674,151.0084,209.1324,0,U,41772,999,54863,.11948168E-3,.3826E-4,0
SKYSAT-C2,2016-058D,2026-07-19T01:09:40.843296,15.42733343,.00009173,97.0161,220.9571,329.4128,30.7067,0,U,41773,999,54996,.15928038E-3,.6875E-4,0
SKYSAT-C3,2016-058E,2026-07-19T00:48:57.350304,15.53816943,.00027373,96.8994,229.6808,128.8883,231.2616,0,U,41774,999,55105,.21334825E-3,.13616E-3,0
ALSAT-1B,2016-059C,2026-07-19T07:38:51.289152,14.72295568,.00105619,97.7756,207.6967,118.1566,242.0711,0,U,41785,999,52530,.14497152E-4,.45E-6,0
PATHFINDER 1,2016-059E,2026-07-19T05:56:19.267008,14.67695757,.00299383,97.8179,198.0787,103.4347,257.0198,0,U,41787,999,52441,.55019923E-4,.269E-5,0
SCATSAT 1,2016-059H,2026-07-19T03:13:07.242240,14.79592832,.00554931,98.1175,264.2277,144.0777,216.4185,0,U,41790,999,10631,.88824726E-4,.626E-5,0
GOKTURK 1A,2016-073A,2026-07-19T06:12:20.167200,14.62794769,.00014437,98.1204,94.4242,81.1710,278.9655,0,U,41875,999,51351,.35919659E-4,.137E-5,0
RESOURCESAT-2A,2016-074A,2026-07-19T07:20:33.609984,14.21609806,.00021255,98.7515,273.5460,19.2270,340.8987,0,U,41877,999,49886,.51430142E-4,.69E-6,0
CARTOSAT-2D,2017-008A,2026-07-19T07:11:47.225760,15.19301911,.00062707,97.4084,259.0028,127.8351,232.3452,0,U,41948,999,52245,.10764281E-3,.2205E-4,0
SENTINEL-2B,2017-013A,2026-07-19T07:19:47.915616,14.30816105,.00012304,98.5679,274.6251,94.9305,265.2019,0,U,42063,999,48923,.34862502E-4,.48E-6,0
CARTOSAT-2E,2017-036C,2026-07-19T07:37:29.222112,15.19269741,.00036527,97.4252,259.5873,173.6786,186.4496,0,U,42767,999,50302,.75813733E-4,.1531E-4,0
FORMOSAT-5,2017-049A,2026-07-19T06:12:25.608672,14.50908477,.0011048,98.2243,274.8543,351.1804,8.9195,0,U,42920,999,47132,.1936744E-4,.33E-6,0
SENTINEL-5P,2017-064A,2026-07-19T06:33:03.178944,14.19523651,.00011718,98.7929,142.1773,93.9960,266.1350,0,U,42969,999,45411,.22559147E-4,.3E-7,0
SKYSAT-C11,2017-068A,2026-07-19T05:17:12.593760,15.59466582,.00014233,97.4391,350.4914,153.1659,206.9671,0,U,42987,999,48823,.22012215E-3,.17324E-3,0
SKYSAT-C10,2017-068B,2026-07-18T21:51:28.463040,15.35160800,.00015172,97.4546,337.0854,111.4677,248.6728,0,U,42988,999,48722,.17528408E-3,.5899E-4,0
SKYSAT-C9,2017-068C,2026-07-18T21:47:26.153376,15.42268411,.0008323,97.4467,338.3256,32.6889,327.4872,0,U,42989,999,48764,.16461838E-3,.6998E-4,0
SKYSAT-C8,2017-068D,2026-07-18T21:33:40.891680,15.37534183,.00012591,97.4564,336.9950,105.1163,255.0221,0,U,42990,999,48718,.15505332E-3,.5624E-4,0
SKYSAT-C7,2017-068E,2026-07-18T21:25:54.413760,15.37483893,.00053671,97.4574,337.9814,8.6859,351.4478,0,U,42991,999,48724,.15377346E-3,.557E-4,0
SKYSAT-C6,2017-068F,2026-07-18T21:51:28.148544,15.34206948,.00050135,97.4612,337.8361,79.9039,280.2769,0,U,42992,999,48718,.15086285E-3,.4915E-4,0
CARTOSAT-2F,2018-004A,2026-07-19T06:49:48.131904,15.19190163,.00026267,97.4767,259.6028,127.4690,232.6784,0,U,43111,999,47220,.75907572E-4,.1529E-4,0
GAOFEN-1 02,2018-031A,2026-07-19T06:52:17.171904,14.76476209,.00014925,98.0506,262.7209,258.6789,101.4253,0,U,43259,999,44743,.93983121E-4,.603E-5,0
GAOFEN-1 03,2018-031B,2026-07-19T07:58:22.467072,14.76465602,.00020767,98.0500,262.6213,3.0477,357.0744,0,U,43260,999,44743,.50963349E-4,.303E-5,0
GAOFEN-1 04,2018-031D,2026-07-19T07:23:25.602144,14.76440253,.00009666,98.0507,262.7922,51.8968,308.2329,0,U,43262,999,44742,.7018556E-5,-.3E-7,0
SENTINEL-3B,2018-039A,2026-07-19T04:03:14.774400,14.26737055,.00012362,98.6233,267.2398,119.0606,241.0698,0,U,43437,999,42868,.34721791E-4,.4E-6,0
GAOFEN-5 01,2018-043A,2026-07-18T21:59:35.186208,14.60624782,.00018746,98.4592,172.1733,24.4451,335.6837,0,U,43461,999,43632,.38599992E-4,.139E-5,0
GAOFEN-6,2018-048A,2026-07-19T07:56:10.489344,14.76385126,.00120366,98.0949,263.0423,70.0671,290.1834,0,U,43484,999,43813,.746608E-5,-.1E-7,0
